FLOCK 4BE-3             
1 60561U 24149CX  26193.78016561  .00013677  00000+0  31896-3 0  9996
2 60561  97.3700 277.9497 0004677 175.7143 184.4145 15.42342774106286
FLOCK 4BE-19            
1 60563U 24149CZ  26193.77471149  .00019318  00000+0  40307-3 0  9999
2 60563  97.3735 279.6149 0005675 181.1200 179.0038 15.45570408106374
FLOCK 4G-8              
1 62613U 25009E   26194.18064683  .00006203  00000+0  21478-3 0  9997
2 62613  97.4011 276.0830 0003766 199.1415 160.9685 15.30217725 82895
FLOCK 4G-13             
1 62621U 25009N   26193.77224578  .00073137  00000+0  13597-2 0  9993
2 62621  97.3953 277.5674 0006251 203.9263 156.1698 15.48622703 82950
FLOCK 4G-9              
1 62622U 25009P   26194.20108680  .00005319  00000+0  19456-3 0  9996
2 62622  97.3962 274.9645 0003840 213.0727 147.0273 15.28487691 82836
FLOCK 4G-7              
1 62624U 25009R   26194.16426194  .00009031  00000+0  31524-3 0  9991
2 62624  97.3946 275.3415 0002337 194.8923 165.2249 15.29822016 82878
FLOCK 4G-12             
1 62625U 25009S   26194.15938919  .00007542  00000+0  26430-3 0  9999
2 62625  97.4024 275.8837 0003978 195.4366 164.6754 15.29747654 82878
FLOCK 4G-11             
1 62629U 25009W   26194.20980518  .00006391  00000+0  22367-3 0  9997
2 62629  97.3927 275.4947 0002409 191.3697 168.7489 15.29855723 82890
FLOCK 4G-26             
1 62633U 25009AA  26194.02742566  .00008193  00000+0  28431-3 0  9991
2 62633  97.4021 275.9125 0003431 184.7421 175.3788 15.30041290 82862
FLOCK 4G-28             
1 62634U 25009AB  26193.67457277  .00005586  00000+0  16558-3 0  9994
2 62634  97.4030 278.3258 0001880 167.8730 192.2560 15.35253890 82994
FLOCK 4G-24             
1 62637U 25009AE  26194.16988789  .00006145  00000+0  21199-3 0  9998
2 62637  97.4028 276.3584 0003514 170.9451 189.1854 15.30341889 82908
FLOCK 4G-3              
1 62639U 25009AG  26194.16241930  .00006502  00000+0  22759-3 0  9990
2 62639  97.4028 276.0604 0003026 175.5584 184.5684 15.29846759 82876
FLOCK 4G-27             
1 62641U 25009AJ  26194.18191055  .00006017  00000+0  21124-3 0  9993
2 62641  97.3939 275.4306 0002326 173.8676 186.2593 15.29782368 82879
FLOCK 4G-29             
1 62642U 25009AK  26194.16732832  .00005485  00000+0  19246-3 0  9996
2 62642  97.4025 276.0254 0003223 171.9398 188.1894 15.29839451 82874
FLOCK 4G-22             
1 62645U 25009AN  26194.25108099  .00006431  00000+0  22583-3 0  9991
2 62645  97.4013 276.1434 0002743 166.4829 193.6485 15.29747072 82907
FLOCK 4G-25             
1 62646U 25009AP  26194.15972365  .00007836  00000+0  27254-3 0  9996
2 62646  97.4018 276.1302 0002252 166.6771 193.4529 15.29985367 82896
