{"fetched_at":"2026-07-13T18:16:33.418Z","source":"https://celestrak.org/NORAD/elements/gp.php?GROUP=planet&FORMAT=JSON","constellation":"superdove","records":[{"OBJECT_NAME":"FLOCK 4BE-3","OBJECT_ID":"2024-149CX","EPOCH":"2026-07-12T18:43:26.308704","CLASSIFICATION_TYPE":"U","MEAN_MOTION":15.42342774,"ECCENTRICITY":0.00046779,"INCLINATION":97.37,"RA_OF_ASC_NODE":277.9497,"ARG_OF_PERICENTER":175.7143,"MEAN_ANOMALY":184.4145,"EPHEMERIS_TYPE":0,"NORAD_CAT_ID":60561,"ELEMENT_SET_NO":999,"REV_AT_EPOCH":10628,"BSTAR":0.0003189599,"MEAN_MOTION_DOT":0.00013677,"MEAN_MOTION_DDOT":0},{"OBJECT_NAME":"FLOCK 4BE-19","OBJECT_ID":"2024-149CZ","EPOCH":"2026-07-12T18:35:35.072736","CLASSIFICATION_TYPE":"U","MEAN_MOTION":15.45570408,"ECCENTRICITY":0.00056753,"INCLINATION":97.3735,"RA_OF_ASC_NODE":279.6149,"ARG_OF_PERICENTER":181.12,"MEAN_ANOMALY":179.0038,"EPHEMERIS_TYPE":0,"NORAD_CAT_ID":60563,"ELEMENT_SET_NO":999,"REV_AT_EPOCH":10637,"BSTAR":0.00040307415,"MEAN_MOTION_DOT":0.00019318,"MEAN_MOTION_DDOT":0},{"OBJECT_NAME":"FLOCK 4G-8","OBJECT_ID":"2025-009E","EPOCH":"2026-07-13T04:20:07.886112","CLASSIFICATION_TYPE":"U","MEAN_MOTION":15.30217725,"ECCENTRICITY":0.00037667,"INCLINATION":97.4011,"RA_OF_ASC_NODE":276.083,"ARG_OF_PERICENTER":199.1415,"MEAN_ANOMALY":160.9685,"EPHEMERIS_TYPE":0,"NORAD_CAT_ID":62613,"ELEMENT_SET_NO":999,"REV_AT_EPOCH":8289,"BSTAR":0.00021478208,"MEAN_MOTION_DOT":0.00006203,"MEAN_MOTION_DDOT":0},{"OBJECT_NAME":"FLOCK 4G-13","OBJECT_ID":"2025-009N","EPOCH":"2026-07-12T18:32:02.035392","CLASSIFICATION_TYPE":"U","MEAN_MOTION":15.48622703,"ECCENTRICITY":0.00062513,"INCLINATION":97.3953,"RA_OF_ASC_NODE":277.5674,"ARG_OF_PERICENTER":203.9263,"MEAN_ANOMALY":156.1698,"EPHEMERIS_TYPE":0,"NORAD_CAT_ID":62621,"ELEMENT_SET_NO":999,"REV_AT_EPOCH":8295,"BSTAR":0.0013596779,"MEAN_MOTION_DOT":0.00073137,"MEAN_MOTION_DDOT":0},{"OBJECT_NAME":"FLOCK 4G-9","OBJECT_ID":"2025-009P","EPOCH":"2026-07-13T04:49:33.899520","CLASSIFICATION_TYPE":"U","MEAN_MOTION":15.28487691,"ECCENTRICITY":0.00038402,"INCLINATION":97.3962,"RA_OF_ASC_NODE":274.9645,"ARG_OF_PERICENTER":213.0727,"MEAN_ANOMALY":147.0273,"EPHEMERIS_TYPE":0,"NORAD_CAT_ID":62622,"ELEMENT_SET_NO":999,"REV_AT_EPOCH":8283,"BSTAR":0.00019455911,"MEAN_MOTION_DOT":0.00005319,"MEAN_MOTION_DDOT":0},{"OBJECT_NAME":"FLOCK 4G-7","OBJECT_ID":"2025-009R","EPOCH":"2026-07-13T03:56:32.231616","CLASSIFICATION_TYPE":"U","MEAN_MOTION":15.29822016,"ECCENTRICITY":0.00023378,"INCLINATION":97.3946,"RA_OF_ASC_NODE":275.3415,"ARG_OF_PERICENTER":194.8923,"MEAN_ANOMALY":165.2249,"EPHEMERIS_TYPE":0,"NORAD_CAT_ID":62624,"ELEMENT_SET_NO":999,"REV_AT_EPOCH":8287,"BSTAR":0.00031524039,"MEAN_MOTION_DOT":0.00009031,"MEAN_MOTION_DDOT":0},{"OBJECT_NAME":"FLOCK 4G-12","OBJECT_ID":"2025-009S","EPOCH":"2026-07-13T03:49:31.226016","CLASSIFICATION_TYPE":"U","MEAN_MOTION":15.29747654,"ECCENTRICITY":0.00039785,"INCLINATION":97.4024,"RA_OF_ASC_NODE":275.8837,"ARG_OF_PERICENTER":195.4366,"MEAN_ANOMALY":164.6754,"EPHEMERIS_TYPE":0,"NORAD_CAT_ID":62625,"ELEMENT_SET_NO":999,"REV_AT_EPOCH":8287,"BSTAR":0.00026429807,"MEAN_MOTION_DOT":0.00007542,"MEAN_MOTION_DDOT":0},{"OBJECT_NAME":"FLOCK 4G-11","OBJECT_ID":"2025-009W","EPOCH":"2026-07-13T05:02:07.167552","CLASSIFICATION_TYPE":"U","MEAN_MOTION":15.29855723,"ECCENTRICITY":0.00024095,"INCLINATION":97.3927,"RA_OF_ASC_NODE":275.4947,"ARG_OF_PERICENTER":191.3697,"MEAN_ANOMALY":168.7489,"EPHEMERIS_TYPE":0,"NORAD_CAT_ID":62629,"ELEMENT_SET_NO":999,"REV_AT_EPOCH":8289,"BSTAR":0.00022366861,"MEAN_MOTION_DOT":0.00006391,"MEAN_MOTION_DDOT":0},{"OBJECT_NAME":"FLOCK 4G-26","OBJECT_ID":"2025-009AA","EPOCH":"2026-07-13T00:39:29.577024","CLASSIFICATION_TYPE":"U","MEAN_MOTION":15.3004129,"ECCENTRICITY":0.0003431,"INCLINATION":97.4021,"RA_OF_ASC_NODE":275.9125,"ARG_OF_PERICENTER":184.7421,"MEAN_ANOMALY":175.3788,"EPHEMERIS_TYPE":0,"NORAD_CAT_ID":62633,"ELEMENT_SET_NO":999,"REV_AT_EPOCH":8286,"BSTAR":0.00028431328,"MEAN_MOTION_DOT":0.00008193,"MEAN_MOTION_DDOT":0},{"OBJECT_NAME":"FLOCK 4G-28","OBJECT_ID":"2025-009AB","EPOCH":"2026-07-12T16:11:23.087328","CLASSIFICATION_TYPE":"U","MEAN_MOTION":15.3525389,"ECCENTRICITY":0.00018802,"INCLINATION":97.403,"RA_OF_ASC_NODE":278.3258,"ARG_OF_PERICENTER":167.873,"MEAN_ANOMALY":192.256,"EPHEMERIS_TYPE":0,"NORAD_CAT_ID":62634,"ELEMENT_SET_NO":999,"REV_AT_EPOCH":8299,"BSTAR":0.00016557711,"MEAN_MOTION_DOT":0.00005586,"MEAN_MOTION_DDOT":0},{"OBJECT_NAME":"FLOCK 4G-24","OBJECT_ID":"2025-009AE","EPOCH":"2026-07-13T04:04:38.313696","CLASSIFICATION_TYPE":"U","MEAN_MOTION":15.30341889,"ECCENTRICITY":0.0003514,"INCLINATION":97.4028,"RA_OF_ASC_NODE":276.3584,"ARG_OF_PERICENTER":170.9451,"MEAN_ANOMALY":189.1854,"EPHEMERIS_TYPE":0,"NORAD_CAT_ID":62637,"ELEMENT_SET_NO":999,"REV_AT_EPOCH":8290,"BSTAR":0.00021198854,"MEAN_MOTION_DOT":0.00006145,"MEAN_MOTION_DDOT":0},{"OBJECT_NAME":"FLOCK 4G-3","OBJECT_ID":"2025-009AG","EPOCH":"2026-07-13T03:53:53.027520","CLASSIFICATION_TYPE":"U","MEAN_MOTION":15.29846759,"ECCENTRICITY":0.00030268,"INCLINATION":97.4028,"RA_OF_ASC_NODE":276.0604,"ARG_OF_PERICENTER":175.5584,"MEAN_ANOMALY":184.5684,"EPHEMERIS_TYPE":0,"NORAD_CAT_ID":62639,"ELEMENT_SET_NO":999,"REV_AT_EPOCH":8287,"BSTAR":0.00022759307,"MEAN_MOTION_DOT":0.00006502,"MEAN_MOTION_DDOT":0},{"OBJECT_NAME":"FLOCK 4G-27","OBJECT_ID":"2025-009AJ","EPOCH":"2026-07-13T04:21:57.071520","CLASSIFICATION_TYPE":"U","MEAN_MOTION":15.29782368,"ECCENTRICITY":0.00023261,"INCLINATION":97.3939,"RA_OF_ASC_NODE":275.4306,"ARG_OF_PERICENTER":173.8676,"MEAN_ANOMALY":186.2593,"EPHEMERIS_TYPE":0,"NORAD_CAT_ID":62641,"ELEMENT_SET_NO":999,"REV_AT_EPOCH":8287,"BSTAR":0.000211242,"MEAN_MOTION_DOT":0.00006017,"MEAN_MOTION_DDOT":0},{"OBJECT_NAME":"FLOCK 4G-29","OBJECT_ID":"2025-009AK","EPOCH":"2026-07-13T04:00:57.166848","CLASSIFICATION_TYPE":"U","MEAN_MOTION":15.29839451,"ECCENTRICITY":0.00032234,"INCLINATION":97.4025,"RA_OF_ASC_NODE":276.0254,"ARG_OF_PERICENTER":171.9398,"MEAN_ANOMALY":188.1894,"EPHEMERIS_TYPE":0,"NORAD_CAT_ID":62642,"ELEMENT_SET_NO":999,"REV_AT_EPOCH":8287,"BSTAR":0.00019246397,"MEAN_MOTION_DOT":0.00005485,"MEAN_MOTION_DDOT":0},{"OBJECT_NAME":"FLOCK 4G-22","OBJECT_ID":"2025-009AN","EPOCH":"2026-07-13T06:01:33.397536","CLASSIFICATION_TYPE":"U","MEAN_MOTION":15.29747072,"ECCENTRICITY":0.00027439,"INCLINATION":97.4013,"RA_OF_ASC_NODE":276.1434,"ARG_OF_PERICENTER":166.4829,"MEAN_ANOMALY":193.6485,"EPHEMERIS_TYPE":0,"NORAD_CAT_ID":62645,"ELEMENT_SET_NO":999,"REV_AT_EPOCH":8290,"BSTAR":0.00022582725,"MEAN_MOTION_DOT":0.00006431,"MEAN_MOTION_DDOT":0},{"OBJECT_NAME":"FLOCK 4G-25","OBJECT_ID":"2025-009AP","EPOCH":"2026-07-13T03:50:00.123360","CLASSIFICATION_TYPE":"U","MEAN_MOTION":15.29985367,"ECCENTRICITY":0.00022527,"INCLINATION":97.4018,"RA_OF_ASC_NODE":276.1302,"ARG_OF_PERICENTER":166.6771,"MEAN_ANOMALY":193.4529,"EPHEMERIS_TYPE":0,"NORAD_CAT_ID":62646,"ELEMENT_SET_NO":999,"REV_AT_EPOCH":8289,"BSTAR":0.0002725378,"MEAN_MOTION_DOT":0.00007836,"MEAN_MOTION_DDOT":0}]}
